CCSDS_OEM_VERS = 1.0
CREATION_DATE  = 2017-05-11T11:02:32
ORIGINATOR     = GMAT USER

META_START
OBJECT_NAME          = MOPSSat_alt_35785_km_RAAN_0_089
OBJECT_ID            = SatId
CENTER_NAME          = Earth
REF_FRAME            = EME2000
TIME_SYSTEM          = UTC
START_TIME           = 2017-01-01T00:00:00.000
USEABLE_START_TIME   = 2017-01-01T00:00:00.000
USEABLE_STOP_TIME    = 2017-01-02T00:00:00.000
STOP_TIME            = 2017-01-02T00:00:00.000
INTERPOLATION        = Lagrange
INTERPOLATION_DEGREE = 7 
META_STOP


                                                                                   

2017-01-01T05:02:30.000   9.498432738684969e+03   4.095135836016689e+04   1.429993646406794e+03  -2.995593574552434e+00   7.245251651883577e-01   2.530941008777106e-02
2017-01-01T05:02:40.000   9.468474261114006e+03   4.095859264425899e+04   1.430246357639361e+03  -2.996101579064924e+00   7.223315744067107e-01   2.523283367444544e-02
2017-01-01T05:02:50.000   9.438510711510638e+03   4.096580499075649e+04   1.430498303048945e+03  -2.996607968056152e+00   7.201376433912245e-01   2.515624539077123e-02
2017-01-01T05:03:00.000   9.408542106166569e+03   4.097299539623056e+04   1.430749482515916e+03  -2.997112741319246e+00   7.179433733500025e-01   2.507964527890935e-02
2017-01-01T05:03:10.000   9.378568461378014e+03   4.098016385726367e+04   1.430999895921043e+03  -2.997615898648204e+00   7.157487654914130e-01   2.500303338103002e-02
2017-01-01T05:03:20.000   9.348589793338710e+03   4.098731037047622e+04   1.431249543146412e+03  -2.998117439839743e+00   7.135538210162546e-01   2.492640973903916e-02
2017-01-01T05:03:30.000   9.318606118211124e+03   4.099443493250842e+04   1.431498424074807e+03  -2.998617364692029e+00   7.113585411229716e-01   2.484977439476050e-02
2017-01-01T05:03:40.000   9.288617452126493e+03   4.100153754002046e+04   1.431746538589705e+03  -2.999115673004697e+00   7.091629270076579e-01   2.477312738993571e-02
2017-01-01T05:03:50.000   9.258623811113137e+03   4.100861818970859e+04   1.431993886575846e+03  -2.999612364579978e+00   7.069669798588074e-01   2.469646876604117e-02
2017-01-01T05:04:00.000   9.228625211203836e+03   4.101567687828050e+04   1.432240467918365e+03  -3.000107439220950e+00   7.047707008651757e-01   2.461979856456236e-02
2017-01-01T05:04:10.000   9.198621668446664e+03   4.102271360245271e+04   1.432486282502710e+03  -3.000600896731391e+00   7.025740912165735e-01   2.454311682702163e-02
2017-01-01T05:04:20.000   9.168613198934574e+03   4.102972835894243e+04   1.432731330214348e+03  -3.001092736915175e+00   7.003771521060338e-01   2.446642359505376e-02
2017-01-01T05:04:30.000   9.138599818829725e+03   4.103672114446342e+04   1.432975610938629e+03  -3.001582959576000e+00   6.981798847315906e-01   2.438971891046811e-02
2017-01-01T05:04:40.000   9.108581544275075e+03   4.104369195574594e+04   1.433219124561477e+03  -3.002071564518784e+00   6.959822902898072e-01   2.431300281502274e-02
2017-01-01T05:04:50.000   9.078558391790370e+03   4.105064078944716e+04   1.433461870966261e+03  -3.002558551543383e+00   6.937843700047641e-01   2.423627535143624e-02
2017-01-01T05:05:00.000   9.048530377792358e+03   4.105756764226015e+04   1.433703850037607e+03  -3.003043920452245e+00   6.915861250929360e-01   2.415953656216174e-02
2017-01-01T05:05:10.000   9.018497518773142e+03   4.106447251087323e+04   1.433945061659973e+03  -3.003527671047532e+00   6.893875567762495e-01   2.408278648984267e-02
2017-01-01T05:05:20.000   8.988459830609392e+03   4.107135539212890e+04   1.434185505723200e+03  -3.004009803142280e+00   6.871886662315123e-01   2.400602517554735e-02
2017-01-01T05:05:30.000   8.958417329251331e+03   4.107821628286504e+04   1.434425182116972e+03  -3.004490316549262e+00   6.849894546408505e-01   2.392925266052981e-02
2017-01-01T05:05:40.000   8.928370030566693e+03   4.108505517995131e+04   1.434664090732080e+03  -3.004969211083542e+00   6.827899231802874e-01   2.385246898583099e-02
2017-01-01T05:05:50.000   8.898317950729193e+03   4.109187208019749e+04   1.434902231457221e+03  -3.005446486556042e+00   6.805900730481825e-01   2.377567419327158e-02
2017-01-01T05:06:00.000   8.868261105930300e+03   4.109866698042244e+04   1.435139604181414e+03  -3.005922142778388e+00   6.783899054441277e-01   2.369886832471530e-02
2017-01-01T05:06:10.000   8.838199512378947e+03   4.110543987745282e+04   1.435376208793946e+03  -3.006396179562807e+00   6.761894215689301e-01   2.362205142206828e-02
2017-01-01T05:06:20.000   8.808133186591220e+03   4.111219076806089e+04   1.435612045182204e+03  -3.006868596717795e+00   6.739886226458108e-01   2.354522352801905e-02
2017-01-01T05:06:30.000   8.778062145000400e+03   4.111891964904951e+04   1.435847113234644e+03  -3.007339394054050e+00   6.717875098918652e-01   2.346838468504234e-02
2017-01-01T05:06:40.000   8.747986404110494e+03   4.112562651721825e+04   1.436081412839605e+03  -3.007808571382098e+00   6.695860845292996e-01   2.339153493579126e-02
2017-01-01T05:06:50.000   8.717905979817562e+03   4.113231136951489e+04   1.436314943890605e+03  -3.008276128522904e+00   6.673843477357546e-01   2.331467432136322e-02
2017-01-01T05:07:00.000   8.687820888088301e+03   4.113897420288369e+04   1.436547706281040e+03  -3.008742065297246e+00   6.651823006939775e-01   2.323780288303384e-02
2017-01-01T05:07:10.000   8.657731144806739e+03   4.114561501430022e+04   1.436779699905396e+03  -3.009206381528153e+00   6.629799445805968e-01   2.316092066186516e-02
2017-01-01T05:07:20.000   8.627636766163241e+03   4.115223380068214e+04   1.437010924656135e+03  -3.009669077034664e+00   6.607772805946022e-01   2.308402769969981e-02
2017-01-01T05:07:30.000   8.597537768365864e+03   4.115883055895629e+04   1.437241380426046e+03  -3.010130151636524e+00   6.585743099362102e-01   2.300712403842320e-02
2017-01-01T05:07:40.000   8.567434167640078e+03   4.116540528605743e+04   1.437471067108186e+03  -3.010589605154090e+00   6.563710338068479e-01   2.293020971996308e-02
2017-01-01T05:07:50.000   8.537325980518826e+03   4.117195797886795e+04   1.437699984593786e+03  -3.011047437404135e+00   6.541674534303773e-01   2.285328478703031e-02
2017-01-01T05:08:00.000   8.507213223452058e+03   4.117848863430027e+04   1.437928132775126e+03  -3.011503648205587e+00   6.519635700245208e-01   2.277634928212146e-02
2017-01-01T05:08:10.000   8.477095912963392e+03   4.118499724926336e+04   1.438155511544363e+03  -3.011958237377200e+00   6.497593848123265e-01   2.269940324791899e-02
2017-01-01T05:08:20.000   8.446974064959069e+03   4.119148382081219e+04   1.438382120798757e+03  -3.012411204747989e+00   6.475548989715935e-01   2.262244672552573e-02
2017-01-01T05:08:30.000   8.416847695420702e+03   4.119794834599769e+04   1.438607960435424e+03  -3.012862550146749e+00   6.453501136855694e-01   2.254547975623476e-02
2017-01-01T05:08:40.000   8.386716820226455e+03   4.120439082190576e+04   1.438833030352701e+03  -3.013312273404783e+00   6.431450301298673e-01   2.246850238107256e-02
2017-01-01T05:08:50.000   8.356581455631671e+03   4.121081124555183e+04   1.439057330446464e+03  -3.013760374348528e+00   6.409396495076387e-01   2.239151464202702e-02
2017-01-01T05:09:00.000   8.326441617872311e+03   4.121720961396831e+04   1.439280860613183e+03  -3.014206852805674e+00   6.387339730205511e-01   2.231451658103418e-02
2017-01-01T05:09:10.000   8.296297323256382e+03   4.122358592418427e+04   1.439503620749207e+03  -3.014651708603738e+00   6.365280018754786e-01   2.223750824021185e-02
2017-01-01T05:09:20.000   8.266148588128741e+03   4.122994017323459e+04   1.439725610751091e+03  -3.015094941570714e+00   6.343217372819242e-01   2.216048966176961e-02
2017-01-01T05:09:30.000   8.235995428853967e+03   4.123627235816235e+04   1.439946830515674e+03  -3.015536551535225e+00   6.321151804507690e-01   2.208346088796511e-02
2017-01-01T05:09:40.000   8.205837861780277e+03   4.124258247602628e+04   1.440167279940342e+03  -3.015976538327055e+00   6.299083325916298e-01   2.200642196101192e-02
2017-01-01T05:09:50.000   8.175675903222886e+03   4.124887052390567e+04   1.440386958923201e+03  -3.016414901777491e+00   6.277011949116413e-01   2.192937292303688e-02
2017-01-01T05:10:00.000   8.145509569428174e+03   4.125513649890621e+04   1.440605867363275e+03  -3.016851641719719e+00   6.254937686128360e-01   2.185231381598873e-02
2017-01-01T05:10:10.000   8.115338876665461e+03   4.126138039814160e+04   1.440824005159869e+03  -3.017286757987549e+00   6.232860548988569e-01   2.177524468187246e-02
2017-01-01T05:10:20.000   8.085163840829018e+03   4.126760221881362e+04   1.441041372215365e+03  -3.017720250420992e+00   6.210780549458407e-01   2.169816556173282e-02
2017-01-01T05:10:30.000   8.054984477920217e+03   4.127380195811459e+04   1.441257968431815e+03  -3.018152118859457e+00   6.188697699376942e-01   2.162107649688580e-02
2017-01-01T05:10:40.000   8.024800803865359e+03   4.127997961326451e+04   1.441473793712235e+03  -3.018582363144349e+00   6.166612010527647e-01   2.154397752845332e-02
2017-01-01T05:10:50.000   7.994612835221321e+03   4.128613518136638e+04   1.441688847955556e+03  -3.019010983108991e+00   6.144523495154741e-01   2.146686869916568e-02
2017-01-01T05:11:00.000   7.964420588469914e+03   4.129226865955108e+04   1.441903131061678e+03  -3.019437978588706e+00   6.122432165446852e-01   2.138975005155913e-02
2017-01-01T05:11:10.000   7.934224080199963e+03   4.129838004493969e+04   1.442116642930165e+03  -3.019863349418205e+00   6.100338033670241e-01   2.131262162844092e-02
2017-01-01T05:11:20.000   7.904023326625635e+03   4.130446933474365e+04   1.442329383463732e+03  -3.020287095438555e+00   6.078241111816355e-01   2.123548347165896e-02
2017-01-01T05:11:30.000   7.873818343983814e+03   4.131053652618171e+04   1.442541352565351e+03  -3.020709216491398e+00   6.056141411892607e-01   2.115833562311687e-02
